138852 2000 WN10,e,21.4819,60.9696,225.1319,1.001283,0.9837133,0.29898051,16.3581,08/27.0/2011,2000,H20.1,0.15
138868 2000 XR15,e,11.0978,330.8840,340.3103,1.597800,0.4880009,0.10609326,221.9442,08/27.0/2011,2000,H17.1,0.15
139047 2001 EB16,e,46.9882,149.5740,346.2255,1.862015,0.3879085,0.38600422,49.7564,08/27.0/2011,2000,H17.1,0.15
139056 2001 FY,e,4.7315,111.3017,110.3121,1.885768,0.3806026,0.32822447,353.1979,08/27.0/2011,2000,H18.9,0.15
139211 2001 GN2,e,26.0722,173.5996,3.3854,1.859312,0.3887547,0.45244311,41.0244,08/27.0/2011,2000,H18.0,0.15
139289 2001 KR1,e,23.2249,102.9539,291.2542,1.259528,0.6972565,0.84139194,41.5269,08/27.0/2011,2000,H17.6,0.15
139359 2001 ME1,e,5.7896,86.6869,300.1181,2.651456,0.2282850,0.86594965,117.5869,08/27.0/2011,2000,H16.7,0.15
140039 2001 SO73,e,4.8616,197.3397,30.6227,1.820549,0.4012366,0.56865328,97.2627,08/27.0/2011,2000,H18.3,0.15
140333 2001 TD2,e,19.0371,12.8827,199.0407,0.962010,1.0445625,0.48160903,281.5813,08/27.0/2011,2000,H19.0,0.15
141078 2001 XQ30,e,11.4696,234.8471,270.5217,1.863505,0.3874433,0.45052803,252.8887,08/27.0/2011,2000,H18.9,0.15
141079 2001 XS30,e,28.5309,251.4722,0.8386,1.164667,0.7841536,0.82819040,141.3816,08/27.0/2011,2000,H17.5,0.15
141424 2002 CD,e,6.8774,8.7199,331.7205,0.979544,1.0166430,0.17657830,80.7622,08/27.0/2011,2000,H20.5,0.15
141447 2002 CW59,e,32.1173,151.1979,7.2187,2.380851,0.2682908,0.50614899,199.1011,08/27.0/2011,2000,H17.0,0.15
141525 2002 FV5,e,34.0177,38.9143,308.0622,1.086852,0.8698578,0.72480607,36.0951,08/27.0/2011,2000,H17.9,0.15
141526 2002 FA6,e,30.0993,174.7090,173.3675,1.013801,0.9655508,0.32238013,307.1934,08/27.0/2011,2000,H19.9,0.15
141527 2002 FG7,e,9.1978,187.6935,247.4330,1.513963,0.5290921,0.62681744,62.3538,08/27.0/2011,2000,H18.8,0.15
141531 2002 GB,e,22.5564,40.8420,8.3125,0.992146,0.9973337,0.52899253,254.2162,08/27.0/2011,2000,H19.0,0.15
141593 2002 HK12,e,2.3592,307.1461,2.0808,2.001362,0.3481093,0.52997692,70.8809,08/27.0/2011,2000,H18.1,0.15
141851 2002 PM6,e,19.1866,304.1824,224.3596,1.198052,0.7516062,0.85008535,3.0020,08/27.0/2011,2000,H17.7,0.15
142561 2002 TX68,e,16.6454,150.2209,122.3557,1.674303,0.4549389,0.29339522,113.9710,08/27.0/2011,2000,H18.2,0.15
143649 2003 QQ47,e,62.1025,1.0055,104.9775,1.085340,0.8716762,0.18696686,310.0842,08/27.0/2011,2000,H17.4,0.15
143658 2003 SB45,e,0.2919,280.1272,138.8542,3.953563,0.1253779,0.25552225,333.7328,08/27.0/2011,2000,H14.6,0.15
143751 2003 US292,e,7.6393,29.1996,347.3385,42.53188,0.0035533,0.25875471,9.3092,08/27.0/2011,2000,H 8.6,0.15
143991 2003 YO179,e,19.3613,66.8886,63.6111,44.81530,0.0032852,0.14003868,319.7982,08/27.0/2011,2000,H 6.1,0.15
144900 2004 VG64,e,36.2739,208.9084,43.8800,0.968239,1.0344991,0.65542731,104.5208,08/27.0/2011,2000,H18.3,0.15
144908 2004 YH32,e,79.1770,47.6428,348.8258,8.146484,0.0423886,0.56684791,93.3756,08/27.0/2011,2000,H12.9,0.15
145651 4264 P-L,e,1.1981,346.8792,18.6020,2.370438,0.2700606,0.19775637,340.6733,08/27.0/2011,2000,H17.1,0.15
148112 1999 RA216,e,0.7880,192.0815,99.2814,44.16883,0.0033576,0.03367601,72.6282,08/27.0/2011,2000,H 7.1,0.15
148209 2000 CR105,e,22.7655,128.2903,316.5131,223.7004,0.0002946,0.80316752,4.9971,08/27.0/2011,2000,H 6.2,0.15
149348 2002 VS130,e,2.9843,275.5869,90.6132,45.33446,0.0032290,0.12544961,49.6487,08/27.0/2011,2000,H 6.3,0.15
149349 2002 VA131,e,7.0531,224.5032,253.3465,42.55136,0.0035509,0.24170018,309.0308,08/27.0/2011,2000,H 6.8,0.15
149560 2003 QZ91,e,34.8035,130.8330,137.8288,41.69834,0.0036604,0.47728109,26.8108,08/27.0/2011,2000,H 8.1,0.15
152561 1991 RB,e,19.5863,359.4130,68.8309,1.454539,0.5618441,0.48559007,102.8392,08/27.0/2011,2000,H19.0,0.15
152627 1997 DF,e,18.6712,145.8394,268.5175,1.541663,0.5148965,0.14680576,281.9538,08/27.0/2011,2000,H18.0,0.15
152754 1999 GS6,e,2.0219,314.6366,134.7925,1.191107,0.7581896,0.49735607,243.7237,08/27.0/2011,2000,H19.2,0.15
152756 1999 JV3,e,15.2265,229.1298,101.4616,1.451024,0.5638870,0.41486114,321.1669,08/27.0/2011,2000,H18.8,0.15
152770 1999 RR28,e,7.1340,178.4521,284.2733,1.878260,0.3828869,0.65349508,194.3842,08/27.0/2011,2000,H18.4,0.15
153002 2000 JG5,e,31.4757,213.1974,233.3113,1.340630,0.6349517,0.79567013,139.6901,08/27.0/2011,2000,H18.1,0.15
153195 2000 WB1,e,41.1155,21.4703,262.8705,1.301215,0.6640188,0.61895986,152.3470,08/27.0/2011,2000,H17.5,0.15
153243 2001 AU47,e,35.9799,311.9371,9.3300,1.298919,0.6657804,0.53055248,134.2750,08/27.0/2011,2000,H17.3,0.15
153267 2001 CB32,e,9.6616,75.6562,330.3468,1.781937,0.4143482,0.61436656,178.5828,08/27.0/2011,2000,H18.0,0.15
153349 2001 PJ9,e,10.5177,284.1837,290.7779,1.799051,0.4084500,0.63994489,97.5945,08/27.0/2011,2000,H18.3,0.15
153460 2001 RN,e,10.0974,211.5592,30.2441,1.413591,0.5864328,0.58106479,13.1173,08/27.0/2011,2000,H19.8,0.15
154019 2002 CZ9,e,4.9705,142.9530,80.6673,1.325702,0.6457067,0.36046058,44.9338,08/27.0/2011,2000,H22.0,0.15
154020 2002 CA10,e,12.1341,145.4433,222.0632,1.541068,0.5151949,0.58981577,54.7868,08/27.0/2011,2000,H19.2,0.15
154268 2002 RM129,e,14.5706,132.7162,357.4757,1.511037,0.5306295,0.46493122,195.1161,08/27.0/2011,2000,H17.9,0.15
154275 2002 SR41,e,11.5921,247.8947,258.0823,1.082687,0.8748826,0.49056540,243.2852,08/27.0/2011,2000,H20.3,0.15
154276 2002 SY50,e,8.7479,34.3474,99.3701,1.706002,0.4423183,0.68937827,322.5901,08/27.0/2011,2000,H17.6,0.15
154302 2002 UQ3,e,28.8166,222.8642,280.8581,1.719651,0.4370625,0.56154192,292.3074,08/27.0/2011,2000,H17.7,0.15
154652 2004 EP20,e,16.1754,159.6316,191.2993,1.058471,0.9050778,0.45054892,157.2091,08/27.0/2011,2000,H18.8,0.15
154658 2004 FA18,e,19.2872,29.6509,318.5894,1.096519,0.8583810,0.45479251,41.2285,08/27.0/2011,2000,H19.3,0.15
154783 2004 PA44,e,3.2727,212.4763,73.2005,14.29102,0.0182435,0.75806361,49.4746,08/27.0/2011,2000,H13.6,0.15
155121 2005 TE68,e,8.6416,93.8967,333.3432,3.217544,0.1707722,0.41423596,343.4546,08/27.0/2011,2000,H15.7,0.15
155140 2005 UD,e,28.7393,19.8203,207.4950,1.274835,0.6847363,0.87228328,59.7297,08/27.0/2011,2000,H17.5,0.15
155338 2006 MZ1,e,2.0789,226.7454,138.4902,1.569235,0.5013860,0.48259129,194.4839,08/27.0/2011,2000,H20.5,0.15
159677 2002 HQ11,e,6.0456,153.3728,322.0760,1.850647,0.3914883,0.59565009,285.7503,08/27.0/2011,2000,H19.4,0.15
159699 2002 PQ142,e,16.7793,151.3710,332.0632,1.696463,0.4460542,0.71623419,347.4114,08/27.0/2011,2000,H17.7,0.15
159928 2005 CV69,e,27.7479,157.5809,95.5154,1.654424,0.4631628,0.41940655,332.0966,08/27.0/2011,2000,H18.0,0.15
160091 2000 OL67,e,1.9822,322.6596,315.7968,45.33164,0.0032293,0.10989826,60.1960,08/27.0/2011,2000,H 6.8,0.15
160148 2001 KV76,e,15.3464,39.6517,229.2801,69.26176,0.0017099,0.50432505,350.5449,08/27.0/2011,2000,H 7.8,0.15
160256 2002 PD149,e,4.9077,103.5828,34.2563,43.18525,0.0034730,0.05850448,223.7299,08/27.0/2011,2000,H 6.3,0.15
161089 2002 OY10,e,10.0478,140.7278,240.3805,2.566581,0.2397020,0.19015304,26.6034,08/27.0/2011,2000,H16.4,0.15
162000 1990 OS,e,1.0954,346.6715,21.3910,1.678428,0.4532629,0.46257559,223.9988,08/27.0/2011,2000,H19.3,0.15
162015 1994 TF2,e,23.7534,175.2613,349.7310,0.993065,0.9959507,0.28402578,245.6916,08/27.0/2011,2000,H19.2,0.15
162038 1996 DH,e,17.2309,309.3333,351.4555,1.586816,0.4930763,0.27669405,135.5474,08/27.0/2011,2000,H16.6,0.15
162039 1996 JG,e,5.2807,53.0622,280.0064,1.801897,0.4074828,0.66031999,90.3010,08/27.0/2011,2000,H19.5,0.15
162058 1997 AE12,e,4.8945,305.6933,59.6142,2.368054,0.2704685,0.55256198,62.7478,08/27.0/2011,2000,H17.8,0.15
162063 1997 EH29,e,13.0193,175.1641,198.5881,1.214265,0.7366039,0.66658196,45.5656,08/27.0/2011,2000,H19.0,0.15
162080 1998 DG16,e,16.2088,344.4019,356.8219,0.896652,1.1608295,0.35819527,152.0950,08/27.0/2011,2000,H19.8,0.15
162082 1998 HL1,e,20.0481,213.5955,148.4671,1.246099,0.7085581,0.18715631,67.9655,08/27.0/2011,2000,H18.9,0.15
162116 1998 SA15,e,7.0998,114.3047,331.2686,1.915932,0.3716499,0.55782760,284.0460,08/27.0/2011,2000,H19.4,0.15
162117 1998 SD15,e,26.7979,183.9645,35.8149,0.932497,1.0945434,0.34489954,233.6374,08/27.0/2011,2000,H19.1,0.15
162120 1998 SH36,e,2.1300,217.9960,278.6943,1.087943,0.8685496,0.57086943,70.3208,08/27.0/2011,2000,H20.6,0.15
162142 1998 VR,e,21.8046,46.4209,170.6720,0.875694,1.2027509,0.31810725,60.1478,08/27.0/2011,2000,H18.6,0.15
162157 1999 CV8,e,15.2632,132.0412,279.2369,1.297036,0.6672310,0.35167179,230.2140,08/27.0/2011,2000,H19.7,0.15
162161 1999 DK3,e,43.1200,149.8455,102.9681,2.115416,0.3203394,0.44363221,344.6389,08/27.0/2011,2000,H17.3,0.15
162162 1999 DB7,e,10.8413,157.6394,29.8436,1.205847,0.7443308,0.19492018,137.4112,08/27.0/2011,2000,H19.9,0.15
162181 1999 LF6,e,18.9417,208.5609,140.7998,1.409202,0.5891748,0.28050998,54.3482,08/27.0/2011,2000,H18.2,0.15
162195 1999 RK45,e,5.8918,120.0377,4.0830,1.598082,0.4878713,0.77303214,297.5017,08/27.0/2011,2000,H19.5,0.15
162196 1999 RL45,e,22.4431,172.0188,234.1716,1.826229,0.3993661,0.37498675,270.7297,08/27.0/2011,2000,H18.8,0.15
162210 1999 SM5,e,5.2058,327.7930,319.1057,2.296057,0.2832892,0.69636629,166.4726,08/27.0/2011,2000,H19.1,0.15
162214 1999 TC10,e,19.2638,28.2619,58.0063,2.326311,0.2777808,0.58352770,112.1013,08/27.0/2011,2000,H18.6,0.15
162269 1999 VO6,e,40.1012,206.9157,302.4825,1.135336,0.8147369,0.73806334,222.5623,08/27.0/2011,2000,H17.0,0.15
162273 1999 VL12,e,20.1844,234.4506,40.8695,1.593884,0.4898003,0.23595128,72.3288,08/27.0/2011,2000,H17.0,0.15
162385 2000 BM19,e,6.8959,70.4843,247.5364,0.740876,1.5455594,0.35855243,184.2508,08/27.0/2011,2000,H18.2,0.15
162416 2000 EH26,e,0.3967,215.2003,19.1075,1.854594,0.3902390,0.47798049,169.9810,08/27.0/2011,2000,H21.7,0.15
162421 2000 ET70,e,22.3217,331.1926,46.3769,0.946978,1.0695338,0.12355426,294.8001,08/27.0/2011,2000,H18.3,0.15
162470 2000 KX43,e,35.2753,83.7793,31.7499,1.112714,0.8397088,0.55277171,272.2220,08/27.0/2011,2000,H19.2,0.15
162474 2000 LB16,e,50.7089,80.8840,285.2826,1.240867,0.7130440,0.35760809,340.5949,08/27.0/2011,2000,H18.4,0.15
